$$SOE
2461295.500000000, A.D. 2026-Sep-12 00:00:00.0000, -2.538683349015378E+08, 3.335909902788984E+08, 2.241232828293528E+07,
2461302.500000000, A.D. 2026-Sep-19 00:00:00.0000, -2.619713139894202E+08, 3.281592382571288E+08, 2.326596717988667E+07,
2461309.500000000, A.D. 2026-Sep-26 00:00:00.0000, -2.699035092017463E+08, 3.225135012609836E+08, 2.410440888340825E+07,
2461316.500000000, A.D. 2026-Oct-03 00:00:00.0000, -2.776606137397636E+08, 3.166585044137195E+08, 2.492718328811558E+07,
2461323.500000000, A.D. 2026-Oct-10 00:00:00.0000, -2.852384171665056E+08, 3.105989944650494E+08, 2.573382978513575E+07,
2461330.500000000, A.D. 2026-Oct-17 00:00:00.0000, -2.926328019215242E+08, 3.043397402113299E+08, 2.652389691497234E+07,
2461337.500000000, A.D. 2026-Oct-24 00:00:00.0000, -2.998397400193918E+08, 2.978855329927088E+08, 2.729694202800731E+07,
2461344.500000000, A.D. 2026-Oct-31 00:00:00.0000, -3.068552898313546E+08, 2.912411871922451E+08, 2.805253093811667E+07,
2461351.500000000, A.D. 2026-Nov-07 00:00:00.0000, -3.136755926092535E+08, 2.844115408032744E+08, 2.879023754438856E+07,
2461358.500000000, A.D. 2026-Nov-14 00:00:00.0000, -3.202968685494579E+08, 2.774014569449921E+08, 2.950964347513238E+07,
2461365.500000000, A.D. 2026-Nov-21 00:00:00.0000, -3.267154142087896E+08, 2.702158270019975E+08, 3.021033797626545E+07,
2461372.500000000, A.D. 2026-Nov-28 00:00:00.0000, -3.329276022707498E+08, 2.628595723762441E+08, 3.089191789010160E+07,
2461379.500000000, A.D. 2026-Dec-05 00:00:00.0000, -3.389298800389843E+08, 2.553376441900469E+08, 3.155398733919215E+07,
2461386.500000000, A.D. 2026-Dec-12 00:00:00.0000, -3.447187664916767E+08, 2.476550240433715E+08, 3.219615735459712E+07,
2461393.500000000, A.D. 2026-Dec-19 00:00:00.0000, -3.502908497870560E+08, 2.398167258281865E+08, 3.281804562263858E+07,
2461400.500000000, A.D. 2026-Dec-26 00:00:00.0000, -3.556427853633083E+08, 2.318277977307330E+08, 3.341927629268986E+07,
2461407.500000000, A.D. 2027-Jan-02 00:00:00.0000, -3.607712943557853E+08, 2.236933242284496E+08, 3.399947980535312E+07,
2461414.500000000, A.D. 2027-Jan-09 00:00:00.0000, -3.656731622130457E+08, 2.154184280979778E+08, 3.455829273200876E+07,
2461421.500000000, A.D. 2027-Jan-16 00:00:00.0000, -3.703452374758570E+08, 2.070082724380459E+08, 3.509535762316377E+07,
2461428.500000000, A.D. 2027-Jan-23 00:00:00.0000, -3.747844306750844E+08, 1.984680626618842E+08, 3.561032285817333E+07,
2461435.500000000, A.D. 2027-Jan-30 00:00:00.0000, -3.789877131657886E+08, 1.898030484066464E+08, 3.610284247551440E+07,
2461442.500000000, A.D. 2027-Feb-06 00:00:00.0000, -3.829521154796953E+08, 1.810185256974033E+08, 3.657257597297850E+07,
2461449.500000000, A.D. 2027-Feb-13 00:00:00.0000, -3.866747256632637E+08, 1.721198405847724E+08, 3.701918822022557E+07,
2461456.500000000, A.D. 2027-Feb-20 00:00:00.0000, -3.901526899720976E+08, 1.631123934656852E+08, 3.744234963628982E+07,
2461463.500000000, A.D. 2027-Feb-27 00:00:00.0000, -3.933832145308686E+08, 1.540016408754013E+08, 3.784173624166898E+07,
2461470.500000000, A.D. 2027-Mar-06 00:00:00.0000, -3.963635649406829E+08, 1.447930966726379E+08, 3.821702946517880E+07,
2461477.500000000, A.D. 2027-Mar-13 00:00:00.0000, -3.990910654354636E+08, 1.354923346620614E+08, 3.856791601950958E+07,
2461484.500000000, A.D. 2027-Mar-20 00:00:00.0000, -4.015630987236981E+08, 1.261049918152266E+08, 3.889408788101173E+07,
2461491.500000000, A.D. 2027-Mar-27 00:00:00.0000, -4.037771063215402E+08, 1.166367715389518E+08, 3.919524231092612E+07,
2461498.500000000, A.D. 2027-Apr-03 00:00:00.0000, -4.057305891820597E+08, 1.070934469414600E+08, 3.947108189637008E+07,
2461505.500000000, A.D. 2027-Apr-10 00:00:00.0000, -4.074211085677209E+08, 9.748086411737625E+07, 3.972131460830723E+07,
2461512.500000000, A.D. 2027-Apr-17 00:00:00.0000, -4.088462871530222E+08, 8.780494543553537E+07, 3.994565387433562E+07,
2461519.500000000, A.D. 2027-Apr-24 00:00:00.0000, -4.100038102874915E+08, 7.807169276574454E+07, 4.014381865498544E+07,
2461526.500000000, A.D. 2027-May-01 00:00:00.0000, -4.108914271290678E+08, 6.828719067025009E+07, 4.031553349937031E+07,
2461533.500000000, A.D. 2027-May-08 00:00:00.0000, -4.115069513502540E+08, 5.845761030543184E+07, 4.046052861422396E+07,
2461540.500000000, A.D. 2027-May-15 00:00:00.0000, -4.118482629245377E+08, 4.858921498298447E+07, 4.057854016260739E+07,
2461547.500000000, A.D. 2027-May-22 00:00:00.0000, -4.119133125704720E+08, 3.868836479420271E+07, 4.066931072522911E+07,
2461554.500000000, A.D. 2027-May-29 00:00:00.0000, -4.117001255122174E+08, 2.876151882579618E+07, 4.073258949823164E+07,
2461561.500000000, A.D. 2027-Jun-05 00:00:00.0000, -4.112068036829722E+08, 1.881523809506484E+07, 4.076813240363242E+07,
2461568.500000000, A.D. 2027-Jun-12 00:00:00.0000, -4.104315283906967E+08, 8.856189628476400E+06, 4.077570233303920E+07,
2461575.500000000, A.D. 2027-Jun-19 00:00:00.0000, -4.093725637938284E+08, -1.108849260266237E+06, 4.075506948025348E+07,
2461582.500000000, A.D. 2027-Jun-26 00:00:00.0000, -4.080282609259204E+08, -1.107298676209068E+07, 4.070601171783989E+07,
2461589.500000000, A.D. 2027-Jul-03 00:00:00.0000, -4.063970621549817E+08, -2.102921243488260E+07, 4.062831500835533E+07,
2461596.500000000, A.D. 2027-Jul-10 00:00:00.0000, -4.044775060588943E+08, -3.097039313816184E+07, 4.052177384973472E+07,
2461603.500000000, A.D. 2027-Jul-17 00:00:00.0000, -4.022682326997971E+08, -4.088926909137912E+07, 4.038619175059101E+07,
2461610.500000000, A.D. 2027-Jul-24 00:00:00.0000, -3.997679891613724E+08, -5.077845013276295E+07, 4.022138171833321E+07,
2461617.500000000, A.D. 2027-Jul-31 00:00:00.0000, -3.969756349588246E+08, -6.063041195912601E+07, 4.002716674408945E+07,
2461624.500000000, A.D. 2027-Aug-07 00:00:00.0000, -3.938901475439656E+08, -7.043749121302317E+07, 3.980338039944130E+07,
2461631.500000000, A.D. 2027-Aug-14 00:00:00.0000, -3.905106302294165E+08, -8.019187969193205E+07, 3.954986773779880E+07,
2461638.500000000, A.D. 2027-Aug-21 00:00:00.0000, -3.868363219402478E+08, -8.988562106816490E+07, 3.926648617162781E+07,
2461645.500000000, A.D. 2027-Aug-28 00:00:00.0000, -3.828666053903900E+08, -9.951060894138296E+07, 3.895310611242942E+07,
2461652.500000000, A.D. 2027-Sep-04 00:00:00.0000, -3.786010148903162E+08, -1.090585837475090E+08, 3.860961168918036E+07,
2461659.500000000, A.D. 2027-Sep-11 00:00:00.0000, -3.740392452052364E+08, -1.185211292158592E+08, 3.823590162154229E+07,
2461666.500000000, A.D. 2027-Sep-18 00:00:00.0000, -3.691811613561038E+08, -1.278896690593206E+08, 3.783189018485046E+07,
2461673.500000000, A.D. 2027-Sep-25 00:00:00.0000, -3.640268091596414E+08, -1.371554640125857E+08, 3.739750824189329E+07,
2461680.500000000, A.D. 2027-Oct-02 00:00:00.0000, -3.585764264548640E+08, -1.463096092330833E+08, 3.693270433896703E+07,
2461687.500000000, A.D. 2027-Oct-09 00:00:00.0000, -3.528304550156817E+08, -1.553430321189315E+08, 3.643744586596940E+07,
2461694.500000000, A.D. 2027-Oct-16 00:00:00.0000, -3.467895531111554E+08, -1.642464906559164E+08, 3.591172027301943E+07,
2461701.500000000, A.D. 2027-Oct-23 00:00:00.0000, -3.404546084809157E+08, -1.730105723610525E+08, 3.535553632262802E+07,
2461708.500000000, A.D. 2027-Oct-30 00:00:00.0000, -3.338267513777257E+08, -1.816256932773712E+08, 3.476892539629243E+07,
2461715.500000000, A.D. 2027-Nov-06 00:00:00.0000, -3.269073688629446E+08, -1.900820959608436E+08, 3.415194305724287E+07,
2461722.500000000, A.D. 2027-Nov-13 00:00:00.0000, -3.196981223577717E+08, -1.983698486119954E+08, 3.350467088396762E+07,
2461729.500000000, A.D. 2027-Nov-20 00:00:00.0000, -3.122009655637656E+08, -2.064788476234693E+08, 3.282721813189588E+07,
2461736.500000000, A.D. 2027-Nov-27 00:00:00.0000, -3.044181611470273E+08, -2.143988206707574E+08, 3.211972331929035E+07,
2461743.500000000, A.D. 2027-Dec-04 00:00:00.0000, -2.963522982138242E+08, -2.221193295294204E+08, 3.138235599901086E+07,
2461750.500000000, A.D. 2027-Dec-11 00:00:00.0000, -2.880063111241503E+08, -2.296297736885636E+08, 3.061531868825376E+07,
2461757.500000000, A.D. 2027-Dec-18 00:00:00.0000, -2.793834993574738E+08, -2.369193952160498E+08, 2.981884890307875E+07,
2461764.500000000, A.D. 2027-Dec-25 00:00:00.0000, -2.704875482616258E+08, -2.439772850034640E+08, 2.899322128299447E+07,
2461771.500000000, A.D. 2028-Jan-01 00:00:00.0000, -2.613225506174871E+08, -2.507923905095134E+08, 2.813874980175613E+07,
$$EOE